id,ident,type,name,latitude_deg,longitude_deg,iso_country,iso_region,municipality,agglomoration
2894,FLLS,large_airport,Kenneth Kaunda International Airport,-15.330833,28.452722,ZM,ZM-09,Lusaka,7.9233780891736645
3237,HRYR,large_airport,Kigali International Airport,-1.96863,30.1395,RW,RW-01,Kigali,8.092942756573082
3005,FVHA,large_airport,Robert Gabriel Mugabe International Airport,-17.931801,31.0928,ZW,ZW-HA,Harare,8.099263188414955
3247,HJJJ,large_airport,Juba International Airport,4.87201,31.601101,SS,SS-17,Juba,8.14575786166545
6093,SGME,large_airport,Doctor Luis Maria Argaña International Airport,-22.046499,-60.6217,PY,PY-19,Mariscal Estigarribia,8.181070775855444
3040,FZAA,large_airport,Ndjili International Airport,-4.38575,15.4446,CD,CD-KN,Kinshasa,8.211832659118254
3263,HUEN,large_airport,Entebbe International Airport,0.042386,32.443501,UG,UG-C,Kampala,8.242389574700148
3039,FYWH,large_airport,Hosea Kutako International Airport,-22.4799,17.4709,NA,NA-KH,Windhoek,8.25269898715798
3260,HTZA,large_airport,Abeid Amani Karume International Airport,-6.22202,39.224899,TZ,TZ-07,Zanzibar,8.390406210843574
3095,GFLL,large_airport,Lungi International Airport,8.61644,-13.1955,SL,SL-N,Freetown (Lungi-Town),8.422632625537911
2908,FMMI,large_airport,Ivato Airport,-18.7969,47.478802,MG,MG-T,Antananarivo,8.44401018443194
2104,DNAA,large_airport,Nnamdi Azikiwe International Airport,9.00679,7.26317,NG,NG-FC,Abuja,8.445798897621806
3099,GLRB,large_airport,Roberts International Airport,6.23379,-10.3623,LR,LR-MG,Monrovia,8.447778926634962
308033,FDSK,large_airport,King Mswati III International Airport,-26.358611,31.716944,SZ,SZ-LU,Mpaka,8.450056229131633
2969,FPST,large_airport,São Tomé International Airport,0.378175,6.71215,ST,ST-01,São Tomé,8.478811546902522
2864,FBSK,large_airport,Sir Seretse Khama International Airport,-24.555201,25.9182,BW,BW-GA,Gaborone,8.483872453490488
2998,FTTJ,large_airport,N'Djamena International Airport,12.1337,15.034,TD,TD-ND,N'Djamena,8.49836142478005
5961,SBPS,large_airport,Porto Seguro Airport,-16.438426,-39.080584,BR,BR-BA,Porto Seguro,8.534965733061481
3066,GABS,large_airport,Modibo Keita International Airport,12.5335,-7.94994,ML,ML-2,Bamako,8.537721236117935
29851,SGEN,large_airport,Lieutenant Amin Ayub González International Airport,-27.227537,-55.837584,PY,PY-7,Encarnación,8.542602235793883
6091,SGES,large_airport,Guaraní International Airport,-25.457186,-54.839544,PY,PY-10,Ciudad del Este,8.554836751058673
573167,IN-0381,large_airport,*(Duplicate)Chennai,0.012,0.005,IN,IN-TN,,8.581868342523805
5867,SBBE,large_airport,Val de Cans/Júlio Cezar Ribeiro International Airport,-1.379279,-48.476207,BR,BR-PA,Belém,8.58350744656185
6193,SLVR,large_airport,Viru Viru International Airport,-17.6448,-63.135399,BO,BO-S,Santa Cruz,8.588117480464893
2125,DRRN,large_airport,Diori Hamani International Airport,13.4815,2.18361,NE,NE-8,Niamey,8.610041174166811
3213,HKMO,large_airport,Moi International Airport,-4.03483,39.5942,KE,KE-300,Mombasa,8.634150212496301
3076,GBYD,large_airport,Banjul International Airport,13.338,-16.652201,GM,GM-W,Banjul,8.638169250051014
2942,FNLU,large_airport,Quatro de Fevereiro International Airport,-8.85837,13.2312,AO,AO-LUA,Luanda,8.64378738843234
26727,VYMD,large_airport,Mandalay International Airport,21.702199935913086,95.97789764404297,MM,MM-04,Mandalay,8.65505380938953
3251,HTDA,large_airport,Julius Nyerere International Airport,-6.87811,39.202599,TZ,TZ-02,Dar es Salaam,8.693572591992696
3206,HKJK,large_airport,Jomo Kenyatta International Airport,-1.31923997402,36.9277992249,KE,KE-110,Nairobi,8.730238737082725
6195,SMJP,large_airport,Johan Adolf Pengel International Airport,5.45283,-55.187801,SR,SR-PR,Zandery,8.774374366573923
6198,SOCA,large_airport,Cayenne – Félix Eboué Airport,4.819964,-52.361326,GF,GF-CY,Matoury,8.793744433743473
2975,FQMA,large_airport,Maputo Airport,-25.920799,32.572601,MZ,MZ-MPM,Maputo,8.800531533945078
325736,GOBD,large_airport,Blaise Diagne International Airport,14.67,-17.073333,SN,SN-DK,Dakar,8.848927251512363
6088,SGAS,large_airport,Silvio Pettirossi International Airport,-25.240156,-57.519227,PY,PY-11,Asunción,8.867703491807267
300795,FALE,large_airport,King Shaka International Airport,-29.6144444444,31.1197222222,ZA,ZA-NL,Durban,8.87557634487782
5872,SBBR,large_airport,Presidente Juscelino Kubitschek International Airport,-15.869167,-47.920834,BR,BR-DF,Brasília,8.918391537669848
6243,SPZO,large_airport,Alejandro Velasco Astete International Airport,-13.535699844400002,-71.9387969971,PE,PE-CUS,Cusco,8.924977544928925
2118,DNMM,large_airport,Murtala Muhammed International Airport,6.5773701667785645,3.321160078048706,NG,NG-LA,Lagos,8.930811464169654
3153,GVNP,large_airport,Nelson Mandela International Airport,14.941126,-23.484728,CV,CV-S,Praia,8.931650841184112
323315,GQNO,large_airport,Nouakchott–Oumtounsy International Airport,18.31,-15.969722,MR,MR-NKC,Nouakchott,8.934121735222261
5905,SBFZ,large_airport,Pinto Martins International Airport,-3.775833,-38.532222,BR,BR-CE,Fortaleza,8.974603976529814
3150,GVAC,large_airport,Amílcar Cabral International Airport,16.7414,-22.9494,CV,CV-B,Espargos,8.984430096152716
5977,SBSV,large_airport,Deputado Luiz Eduardo Magalhães International Airport,-12.908611,-38.322498,BR,BR-BA,Salvador,9.016391210592918
513482,VDSA,large_airport,Siem Reap-Angkor International Airport,13.369167,104.223056,KH,KH-17,Siem Reap,9.018455610272149
3157,HAAB,large_airport,Addis Ababa Bole International Airport,8.97789,38.799301,ET,ET-AA,Addis Ababa,9.020451402957491
5998,SBVT,large_airport,Eurico de Aguiar Salles Airport,-20.258,-40.285,BR,BR-ES,Vitória,9.046914720495224
26744,VYYY,large_airport,Yangon International Airport,16.907300949099998,96.1332015991,MM,MM-06,Yangon,9.058133344711168
5897,SBEG,large_airport,Eduardo Gomes International Airport,-3.03861,-60.049702,BR,BR-AM,Manaus,9.066997164927812
5882,SBCF,large_airport,Tancredo Neves International Airport,-19.63571,-43.966928,BR,BR-MG,Belo Horizonte,9.068201161226169
2090,DGAA,large_airport,Kotoka International Airport,5.605189800262451,-0.16678600013256073,GH,GH-AA,Accra,9.106302080545102
27101,YPDN,large_airport,Darwin International Airport / RAAF Darwin,-12.41497,130.88185,AU,AU-NT,Darwin,9.126247091008437
2993,FSIA,large_airport,Seychelles International Airport,-4.67434,55.521801,SC,SC-20,Mahe Island,9.202509402524111
6247,SUMU,large_airport,Carrasco General Cesáreo L. Berisso International Airport,-34.835647,-56.026497,UY,UY-CA,Ciudad de la Costa,9.20273291071146
2905,FMEE,large_airport,Roland Garros Airport,-20.890087,55.518894,RE,RE-SD,Sainte-Marie,9.21460571718442
2878,FIMP,large_airport,Sir Seewoosagur Ramgoolam International Airport,-20.430201,57.683601,MU,MU-GP,Plaine Magnien,9.229718273872809
26647,VTCC,large_airport,Chiang Mai International Airport,18.766799926799997,98.962600708,TH,TH-50,Chiang Mai,9.235993048706757
6389,TLPL,large_airport,Hewanorra International Airport,13.7332,-60.952599,LC,LC-11,Vieux Fort,9.236135252513492
6403,TNCB,large_airport,Flamingo International Airport,12.131,-68.268501,BQ,BQ-U-A,"Kralendijk, Bonaire",9.268431188445982
26755,WAJJ,large_airport,Dortheys Hiyo Eluay International Airport,-2.579627,140.519857,ID,ID-PA,Sentani,9.28811930486258
4707,MMDO,large_airport,General Guadalupe Victoria International Airport,24.125468,-104.527938,MX,MX-DUR,Durango,9.291259421102197
26674,VTSP,large_airport,Phuket International Airport,8.1132,98.316902,TH,TH-83,Phuket,9.295852274822947
3174,HDAM,large_airport,Djibouti-Ambouli Airport,11.5473,43.1595,DJ,DJ-DJ,Djibouti City,9.311311476576623
6406,TNCM,large_airport,Princess Juliana International Airport,18.041,-63.108898,SX,SX-U-A,Saint Martin,9.316411279986847
27204,ZLLL,large_airport,Lanzhou Zhongchuan International Airport,36.515202,103.620003,CN,CN-62,Lanzhou (Yongdeng),9.328495201604644
4733,MMMZ,large_airport,General Rafael Buelna International Airport,23.161474,-106.264572,MX,MX-SIN,Mazatlàn,9.33415920618362
309577,WIMM,large_airport,Kualanamu International Airport,3.637847,98.870566,ID,ID-SU,Medan,9.336025709286288
3,AGGH,large_airport,Honiara International Airport,-9.428,160.054993,SB,SB-GU,Honiara,9.34509531407026
5011,NVVV,large_airport,Bauerfield International Airport,-17.699301,168.320007,VU,VU-SEE,Port Vila,9.366393216649676
6506,UNKL,large_airport,Krasnoyarsk International Airport,56.173077,92.492437,RU,RU-KYA,Krasnoyarsk,9.37788490779097
5901,SBFL,large_airport,Hercílio Luz International Airport,-27.670279,-48.552502,BR,BR-SC,Florianópolis,9.3918901496987
6404,TNCC,large_airport,Hato International Airport,12.1889,-68.959801,CW,CW-U-A,Willemstad,9.392635460498935
27214,ZPPP,large_airport,Kunming Changshui International Airport,25.110313,102.936743,CN,CN-53,Kunming,9.401825746363544
3077,GCFV,large_airport,Fuerteventura Airport,28.4527,-13.8638,ES,ES-CN,El Matorral,9.425140866201083
6366,TFFR,large_airport,Pointe-à-Pitre Le Raizet International  Airport,16.265301,-61.531799,GP,GP-U-A,Pointe-à-Pitre,9.42615513790612
26745,WAAA,large_airport,Hasanuddin International Airport,-5.06163,119.554001,ID,ID-SN,Ujung Pandang,9.439889471594528
5742,RPVM,large_airport,Mactan Cebu International Airport,10.309261,123.97974,PH,PH-CEB,Lapu-Lapu City,9.444539782292422
3249,HSSK,large_airport,Khartoum International Airport,15.5895,32.5532,SD,SD-03,Khartoum,9.445530535953829
2775,FACT,large_airport,Cape Town International Airport,-33.9648017883,18.6016998291,ZA,ZA-WC,Cape Town,9.45168038645474
67,AYPY,large_airport,Port Moresby Jacksons International Airport,-9.443380355834961,147.22000122070312,PG,PG-NCD,Port Moresby,9.45514572626823
6402,TNCA,large_airport,Queen Beatrix International Airport,12.5014,-70.015198,AW,AW-U-A,Oranjestad,9.467142892322096
5455,PHOG,large_airport,Kahului International Airport,20.896263,-156.431837,US,US-HI,Kahului,9.477821007483112
26760,WALL,large_airport,Sultan Aji Muhammad Sulaiman Sepinggan International Airport,-1.268342,116.89452,ID,ID-KI,Balikpapan,9.494643255293507
4750,MMSD,large_airport,Los Cabos International Airport,23.151919,-109.720731,MX,MX-BCS,San José del Cabo,9.507588715238391
5697,RPMD,large_airport,Francisco Bangoy International Airport,7.12552,125.646004,PH,PH-DAS,Davao,9.516697315175817
5771,SABE,large_airport,Jorge Newbery Airpark,-34.5592,-58.4156,AR,AR-C,Buenos Aires,9.52776190137271
6300,SVMI,large_airport,Simón Bolívar International Airport,10.601194,-66.991222,VE,VE-X,Caracas,9.55136855525606
309579,VCRI,large_airport,Mattala Rajapaksa International Airport,6.284467,81.124128,LK,LK-3,Mattala,9.55765819358667
335326,ZMCK,large_airport,Ulaanbaatar Chinggis Khaan International Airport,47.646916,106.819833,MN,MN-047,Ulaanbaatar (Sergelen),9.560718920735999
27196,ZGKL,large_airport,Guilin Liangjiang International Airport,25.219828,110.039553,CN,CN-45,Guilin (Lingui),9.56539387908414
4456,LPPD,large_airport,João Paulo II Airport,37.7411994934,-25.6979007721,PT,PT-20,Ponta Delgada,9.572865178403232
3083,GCTS,large_airport,Tenerife Sur Airport,28.0445,-16.5725,ES,ES-CN,Tenerife,9.585686410064927
5063,NZWN,large_airport,Wellington International Airport,-41.3272018433,174.804992676,NZ,NZ-WGN,Wellington,9.586278937020502
6363,TFFF,large_airport,Martinique Aimé Césaire International Airport,14.591,-61.003201,MQ,MQ-U-A,Fort-de-France,9.599725876265504
6255,SVBC,large_airport,General José Antonio Anzoategui International Airport,10.111111,-64.692222,VE,VE-B,Barcelona,9.603183054075037
4452,LPMA,large_airport,Madeira International Airport Cristiano Ronaldo,32.697899,-16.7745,PT,PT-30,Funchal,9.615028010227844
4635,MDLR,large_airport,Casa De Campo International Airport,18.452222,-68.911111,DO,DO-12,La Romana,9.61781870067318
3082,GCRR,large_airport,César Manrique-Lanzarote Airport,28.945499,-13.6052,ES,ES-CN,San Bartolomé,9.639446722178583
3081,GCLP,large_airport,Gran Canaria Airport,27.9319,-15.3866,ES,ES-CN,Gran Canaria Island,9.648311293735773
26636,VRMM,large_airport,Malé International Airport,4.191830158233643,73.52909851074219,MV,MV-MLE,Malé,9.649047586692182
4745,MMPR,large_airport,Puerto Vallarta International Airport,20.679913,-105.254391,MX,MX-JAL,Puerto Vallarta,9.649434088857413
4636,MDPC,large_airport,Punta Cana International Airport,18.5674,-68.363403,DO,DO-11,Punta Cana,9.654244496603665
5906,SBGL,large_airport,Rio Galeão – Tom Jobim International Airport,-22.809999,-43.250557,BR,BR-RJ,Rio De Janeiro,9.655299437675811
27197,ZGNN,large_airport,Nanning Wuxu Airport,22.608544,108.175335,CN,CN-45,Nanning (Jiangnan),9.67897687350917
6426,UAFM,large_airport,Manas International Airport,43.0612983704,74.4776000977,KG,KG-C,Bishkek,9.68995696077308
4979,NTAA,large_airport,Faa'a International Airport,-17.553699,-149.606995,PF,PF-U-A,Papeete,9.700854418562736
339001,UWSG,large_airport,Gagarin International Airport,51.712778,46.171111,RU,RU-SAR,Saratov,9.703054499110277
26475,VDPP,large_airport,Phnom Penh International Airport,11.5466,104.844002,KH,KH-12,Phnom Penh (Pou Senchey),9.704417239615484
512065,VAHS,large_airport,Rajkot International Airport,22.378824,71.039391,IN,IN-GJ,Rajkot,9.709740437091854
26751,WADD,large_airport,I Gusti Ngurah Rai International Airport,-8.74817,115.167,ID,ID-BA,Denpasar,9.728725020287941
27229,ZUGY,large_airport,Guiyang Longdongbao International Airport,26.541466,106.803331,CN,CN-52,Guiyang (Nanming),9.729573746773346
4825,MTPP,large_airport,Toussaint Louverture International Airport,18.58,-72.292503,HT,HT-OU,Port-au-Prince,9.738094243058244
342095,ZUTF,large_airport,Chengdu Tianfu International Airport,30.31252,104.441284,CN,CN-51,Chengdu (Jianyang),9.752231726004624
6501,UMMS,large_airport,Minsk National Airport,53.888071,28.039964,BY,BY-MI,Minsk,9.757450516264917
27202,ZJSY,large_airport,Sanya Phoenix International Airport,18.3029,109.412003,CN,CN-46,Sanya (Tianya),9.76221505235147
299738,OM-0003,large_airport,Duqm International Airport,19.501944,57.634167,OM,OM-WU,Duqm,9.76556980978143
5026,NZCH,large_airport,Christchurch International Airport,-43.48939895629883,172.53199768066406,NZ,NZ-CAN,Christchurch,9.790511909643142
6423,UACC,large_airport,Nursultan Nazarbayev International Airport,51.027035,71.467094,KZ,KZ-AST,Astana,9.807200614272409
2537,EINN,large_airport,Shannon Airport,52.702,-8.92482,IE,IE-CE,Shannon,9.808713702153353
4638,MDSD,large_airport,Las Américas International Airport,18.42970085144,-69.668899536133,DO,DO-01,Santo Domingo,9.823591568205801
326363,URRP,large_airport,Platov International Airport,47.493888,39.924722,RU,RU-ROS,Rostov-on-Don,9.826707936043235
26819,WBSB,large_airport,Brunei International Airport,4.9442,114.928001,BN,BN-BM,Bandar Seri Begawan,9.829966526475337
4628,MBPV,large_airport,Providenciales International Airport,21.773697,-72.268321,TC,TC-PR,Providenciales,9.842068795523474
26700,VVNB,large_airport,Noi Bai International Airport,21.221201,105.806999,VN,VN-RRD,Hanoi (Soc Son),9.850933906532957
5433,PGUM,large_airport,Antonio B. Won Pat International Airport,13.4834,144.796005,GU,GU-U-A,Hagåtña,9.85706433305701
1770,CYHZ,large_airport,Halifax / Stanfield International Airport,44.8807983398,-63.5085983276,CA,CA-NS,Halifax,9.869446593945955
5781,SAEZ,large_airport,Minister Pistarini International Airport,-34.8222,-58.5358,AR,AR-B,Buenos Aires (Ezeiza),9.875718819850988
26901,YBBN,large_airport,Brisbane International Airport,-27.384199142456055,153.11700439453125,AU,AU-QLD,Brisbane,9.882315178589032
31055,FAOR,large_airport,O.R. Tambo International Airport,-26.1392,28.246,ZA,ZA-GT,Johannesburg,9.891400028826743
123,BIKF,large_airport,Keflavik International Airport,63.985001,-22.6056,IS,IS-2,Reykjavík,9.893631620159518
27096,YPAD,large_airport,Adelaide International Airport,-34.947512,138.533393,AU,AU-SA,Adelaide,9.902280178787876
6481,UKLL,large_airport,Lviv International Airport,49.8125,23.9561,UA,UA-46,Lviv,9.910581283173165
342094,IN-0277,large_airport,Manohar International Airport,15.744257,73.860625,IN,IN-GA,Mopa,9.913245722537457
2766,EYVI,large_airport,Vilnius International Airport,54.634102,25.285801,LT,LT-VL,Vilnius,9.913621958249259
1986,CYYT,large_airport,St. John's International Airport,47.618599,-52.7519,CA,CA-NL,St. John's,9.913709135821788
26392,UTTT,large_airport,Tashkent International Airport,41.257900238,69.2811965942,UZ,UZ-TO,Tashkent,9.914599633349843
6462,UHWW,large_airport,Vladivostok International Airport,43.396256,132.148155,RU,RU-PRI,Artyom,9.928399292901808
26412,UWWW,large_airport,Kurumoch International Airport,53.504902,50.164299,RU,RU-SAM,Samara,9.93293836715987
5255,OPKC,large_airport,Jinnah International Airport,24.9065,67.160797,PK,PK-SD,Karachi,9.932943345442126
2601,ENVA,large_airport,"Trondheim Airport, Værnes",63.457802,10.924,NO,NO-50,Trondheim,9.937731358025879
333692,OPIS,large_airport,Islamabad International Airport,33.549,72.82566,PK,PK-PB,Attock,9.939459182730339
5023,NZAA,large_airport,Auckland International Airport,-37.01199,174.786331,NZ,NZ-AUK,Auckland,9.93973004259187
5183,OIMM,large_airport,Mashhad International Airport,36.235198974609375,59.64099884033203,IR,IR-09,Mashhad,9.940078683751187
2599,ENTC,large_airport,"Tromsø Airport, Langnes",69.683296,18.9189,NO,NO-55,Tromsø,9.95133740962993
27201,ZJHK,large_airport,Haikou Meilan International Airport,19.9349,110.459,CN,CN-46,Haikou (Meilan),9.953745248567909
16091,KABQ,large_airport,Albuquerque International Sunport,35.039976,-106.608925,US,US-NM,Albuquerque,9.962556764309097
6467,UKBB,large_airport,Boryspil International Airport,50.345001,30.894699,UA,UA-32,Boryspil,9.984999406895039
26887,WSSS,large_airport,Singapore Changi Airport,1.35019,103.994003,SG,SG-04,Singapore,9.98512831211655
6015,SCEL,large_airport,Comodoro Arturo Merino Benítez International Airport,-33.393001556396484,-70.78579711914062,CL,CL-RM,Santiago,9.996567066151952
26380,UTAA,large_airport,Ashgabat International Airport,37.986801,58.361,TM,TM-S,Ashgabat,9.996910297840115
3974,LBBG,large_airport,Burgas Airport,42.569917,27.515173,BG,BG-02,Burgas,9.996969048264168
27228,ZUCK,large_airport,Chongqing Jiangbei International Airport,29.712254,106.651895,CN,CN-50,Chongqing,10.01775921217615
26444,VAGO,large_airport,Dabolim Airport,15.3808,73.831398,IN,IN-GA,Vasco da Gama,10.02466293703822
5453,PHNL,large_airport,Daniel K Inouye International Airport,21.32062,-157.924228,US,US-HI,"Honolulu, Oahu",10.027868006591492
27238,ZYHB,large_airport,Harbin Taiping International Airport,45.623402,126.25,CN,CN-23,Harbin,10.028585239165961
6104,SKBO,large_airport,El Dorado International Airport,4.70159,-74.1469,CO,CO-DC,Bogota,10.029980005171504
41136,RU-0016,large_airport,Lipetsk Air Base,52.634998,39.445,RU,RU-LIP,Lipetsk,10.032638709082908
27189,ZBHH,large_airport,Hohhot Baita International Airport,40.849658,111.824598,CN,CN-15,Hohhot,10.037088778136816
3979,LBWN,large_airport,Varna Airport,43.232101,27.8251,BG,BG-03,Varna,10.037394593482752
2758,EVRA,large_airport,Riga International Airport,56.923599,23.9711,LV,LV-062,Riga,10.038028668694357
6519,URSS,large_airport,Sochi International Airport,43.449902,39.9566,RU,RU-KDA,Sochi,10.049646573392982
6507,UNNT,large_airport,Novosibirsk Tolmachevo Airport,55.019756,82.618675,RU,RU-NVS,Novosibirsk,10.059877779742276
6421,UAAA,large_airport,Almaty International Airport,43.354267,77.042828,KZ,KZ-ALA,Almaty,10.066988793326749
4258,LGIR,large_airport,Heraklion International Nikos Kazantzakis Airport,35.339699,25.1803,GR,GR-M,Heraklion,10.072460265201931
6217,SPIM,large_airport,Jorge Chávez International Airport,-12.0219,-77.114305,PE,PE-LIM,Lima,10.077676870748789
2541,EKBI,large_airport,Billund Airport,55.740335,9.157019,DK,DK-83,Billund,10.085564129280577
26629,VOTV,large_airport,Thiruvananthapuram International Airport,8.48212,76.920097,IN,IN-KL,Thiruvananthapuram,10.085924691940587
26404,UWKD,large_airport,Kazan International Airport,55.606201171875,49.278701782227,RU,RU-TA,Kazan,10.097702871666383
6453,UGTB,large_airport,Tbilisi International Airport,41.669201,44.9547,GE,GE-TB,Tbilisi,10.114140468930184
26609,VOCI,large_airport,Cochin International Airport,10.152,76.401901,IN,IN-KL,Kochi,10.11585716638123
26411,UWUU,large_airport,Ufa International Airport,54.557498931885,55.874401092529,RU,RU-BA,Ufa,10.120548278708455
5566,RJFK,large_airport,Kagoshima Airport,31.8034,130.718994,JP,JP-46,Kagoshima,10.121934041164252
507227,ID-0277,large_airport,Dhoho International Airport,-7.750278,111.947222,ID,ID-JI,Kediri,10.122733196692145
6384,TJSJ,large_airport,Luis Munoz Marin International Airport,18.4394,-66.001801,PR,PR-U-A,San Juan,10.126932038097141
27205,ZLXY,large_airport,Xi'an Xianyang International Airport,34.447102,108.751999,CN,CN-61,Xianyang (Weicheng),10.131731772341569
26463,VCBI,large_airport,Bandaranaike International Colombo Airport,7.180759906768799,79.88410186767578,LK,LK-1,Colombo,10.132371419327622
27119,YPPH,large_airport,Perth International Airport,-31.94029998779297,115.96700286865234,AU,AU-WA,Perth,10.132572512127394
27066,YMML,large_airport,Melbourne International Airport,-37.673302,144.843002,AU,AU-VIC,Melbourne,10.134457089461298
2648,ESGG,large_airport,Göteborg Landvetter Airport,57.6628,12.2798,SE,SE-Q,Göteborg,10.138931271507948
3977,LBSF,large_airport,Sofia Airport,42.696357,23.417671,BG,BG-22,Sofia,10.143737846803354
2701,ESSA,large_airport,Stockholm-Arlanda Airport,59.64849,17.928829,SE,SE-AB,Stockholm,10.149695000245869
5388,PANC,large_airport,Ted Stevens Anchorage International Airport,61.179004,-149.992561,US,US-AK,Anchorage,10.154419014535547
4482,LROP,large_airport,Bucharest Henri Coandă International Airport,44.572127,26.103396,RO,RO-IF,Otopeni,10.154692026965671
5910,SBGR,large_airport,Guarulhos - Governador André Franco Montoro International Airport,-23.431944,-46.467778,BR,BR-SP,São Paulo,10.159645108120245
27203,ZKPY,large_airport,Pyongyang Sunan International Airport,39.224098,125.669998,KP,KP-01,Pyongyang,10.173769640948798
4573,LWSK,large_airport,Skopje International Airport,41.958087,21.622581,MK,MK-008,Ilinden,10.191703139409661
2385,EGAA,large_airport,Belfast International Airport,54.6575012207,-6.2158298492399995,GB,GB-NIR,Belfast,10.194035270909698
2542,EKCH,large_airport,Copenhagen Kastrup Airport,55.617900848389,12.656000137329,DK,DK-84,Copenhagen,10.205956563560102
4710,MMGL,large_airport,Guadalajara International Airport,20.523342,-103.310108,MX,MX-JAL,Guadalajara,10.213894768796424
2301,EETN,large_airport,Lennart Meri Tallinn Airport,59.413246,24.83264,EE,EE-37,Tallinn,10.225037891978925
5544,RJCC,large_airport,New Chitose Airport,42.7752,141.692001,JP,JP-01,Sapporo,10.227352713696224
3113,GMMN,large_airport,Mohammed V International Airport,33.3675,-7.58997,MA,MA-CAS,Casablanca,10.229746535776906
3853,KRNO,large_airport,Reno Tahoe International Airport,39.4991,-119.767998,US,US-NV,Reno,10.242623517950824
5242,OOMS,large_airport,Muscat International Airport,23.5933,58.284401,OM,OM-MA,Muscat,10.245179107096568
1946,CYWG,large_airport,Winnipeg / James Armstrong Richardson International Airport,49.909999847399995,-97.2398986816,CA,CA-MB,Winnipeg,10.250248588176381
27145,YSSY,large_airport,Sydney Kingsford Smith International Airport,-33.946098,151.177002,AU,AU-NSW,Sydney (Mascot),10.25568304868457
2608,EPGD,large_airport,Gdańsk Lech Wałęsa Airport,54.377602,18.4662,PL,PL-PM,Gdańsk,10.255814018873803
2570,ENBR,large_airport,"Bergen Airport, Flesland",60.2934,5.21814,NO,NO-46,Bergen,10.261805760533466
3486,KDEN,large_airport,Denver International Airport,39.861698150635,-104.672996521,US,US-CO,Denver,10.262489729167774
3887,KSLC,large_airport,Salt Lake City International Airport,40.78886,-111.979866,US,US-UT,Salt Lake City,10.264330728689439
26596,VNKT,large_airport,Tribhuvan International Airport,27.6966,85.3591,NP,NP-P3,Kathmandu,10.2818807305201
6446,UDYZ,large_airport,Zvartnots International Airport,40.1473007202,44.3959007263,AM,AM-ER,Yerevan,10.283486617140884
4448,LPFR,large_airport,Faro Airport,37.0144004822,-7.96590995789,PT,PT-08,Faro,10.294636889204314
26789,WARR,large_airport,Juanda International Airport,-7.37983,112.787003,ID,ID-JI,Surabaya,10.308525045017882
3198,HESH,large_airport,Sharm El Sheikh International Airport,27.977272,34.394717,EG,EG-JS,Sharm El Sheikh,10.313390933976013
27237,ZYCC,large_airport,Changchun Longjia International Airport,43.996201,125.684998,CN,CN-22,Changchun,10.313585786431172
3186,HEGN,large_airport,Hurghada International Airport,27.176776,33.796692,EG,EG-BA,Hurghada,10.319183761795376
6056,SEGU,large_airport,José Joaquín de Olmedo International Airport,-2.15742,-79.883598,EC,EC-G,Guayaquil,10.321018218053847
4296,LHBP,large_airport,Budapest Liszt Ferenc International Airport,47.43018,19.262393,HU,HU-BU,Budapest,10.322545707556094
5615,RJSS,large_airport,Sendai Airport,38.139702,140.917007,JP,JP-04,Natori,10.330692560414244
4469,LQSA,large_airport,Sarajevo International Airport,43.8246,18.331499,BA,BA-BIH,Sarajevo,10.331460661734699
27236,ZWWW,large_airport,Ürümqi Diwopu International Airport,43.907100677490234,87.47419738769531,CN,CN-65,Ürümqi,10.340271944087544
4293,LGTS,large_airport,Thessaloniki Macedonia International Airport,40.51928,22.970009,GR,GR-B,Thessaloniki,10.348984007622201
3972,LATI,large_airport,Tirana International Airport Mother Teresa,41.4147,19.7206,AL,AL-02,Rinas,10.349398723673293
4680,MKJP,large_airport,Norman Manley International Airport,17.935699462890625,-76.7874984741211,JM,JM-01,Kingston,10.353024316909398
4038,LEST,large_airport,Santiago-Rosalía de Castro Airport,42.896301,-8.41514,ES,ES-GA,Santiago de Compostela,10.353813825101584
4613,LYPG,large_airport,Podgorica Airport / Podgorica Golubovci Airbase,42.359402,19.2519,ME,ME-16,Podgorica,10.362802684983931
2578,ENGM,large_airport,"Oslo Airport, Gardermoen",60.193901,11.1004,NO,NO-32,Oslo,10.363514390934894
3224,HLLM,large_airport,Mitiga International Airport,32.89177,13.287878,LY,LY-TB,Tripoli,10.36470921556458
4542,LTBS,large_airport,Dalaman International Airport,36.7131004333,28.7924995422,TR,TR-48,Dalaman,10.369200564402052
4567,LTFE,large_airport,Milas Bodrum International Airport,37.250599,27.664301,TR,TR-48,Bodrum,10.374395195232285
4574,LXGB,large_airport,Gibraltar Airport,36.151199,-5.34966,GI,GI-U-A,Gibraltar,10.382100711825204
26378,USSS,large_airport,Koltsovo Airport,56.743099212646,60.802700042725,RU,RU-SVE,Yekaterinburg,10.383276985142025
4732,MMMY,large_airport,Monterrey International Airport,25.778521,-100.106989,MX,MX-NLE,Monterrey,10.384672940470647
4617,LZIB,large_airport,M. R. Štefánik Airport,48.1702,17.2127,SK,SK-BL,Bratislava,10.386481241848902
4434,LOWW,large_airport,Vienna International Airport,48.110298,16.5697,AT,AT-9,Vienna,10.411825130370728
5101,OEMA,large_airport,Prince Mohammad Bin Abdulaziz Airport,24.5534,39.705101,SA,SA-03,Medina,10.414979556837105
2533,EIDW,large_airport,Dublin Airport,53.428713,-6.262121,IE,IE-D,Dublin,10.422639755280255
2602,ENZV,large_airport,"Stavanger Airport, Sola",58.876701,5.63778,NO,NO-11,Stavanger,10.426566721624527
4386,LJLJ,large_airport,Ljubljana Jože Pučnik Airport,46.223701,14.4576,SI,SI-012,Zgornji Brnik,10.433705660663996
2307,EFHK,large_airport,Helsinki Vantaa Airport,60.318363,24.963341,FI,FI-18,Helsinki,10.434578103508835
330388,LLER,large_airport,Ramon International Airport,29.727009,35.014116,IL,IL-D,Eilat,10.441281118808947
27195,ZGHA,large_airport,Changsha Huanghua International Airport,28.189199,113.220001,CN,CN-43,Changsha (Changsha),10.442497050866297
2609,EPKK,large_airport,Kraków John Paul II International Airport,50.077702,19.7848,PL,PL-MA,Balice,10.443550538198197
6440,UBBB,large_airport,Heydar Aliyev International Airport,40.467498779296875,50.04669952392578,AZ,AZ-BA,Baku,10.445225207139602
1941,CYVR,large_airport,Vancouver International Airport,49.193901062,-123.183998108,CA,CA-BC,Vancouver,10.449524863199693
4793,MPTO,large_airport,Tocumen International Airport,9.07136,-79.383499,PA,PA-8,Tocumen,10.453834822982698
4427,LMML,large_airport,Malta International Airport,35.857498,14.4775,MT,MT-25,Valletta,10.454645449963628
4020,LEMG,large_airport,Málaga-Costa del Sol Airport,36.6749,-4.49911,ES,ES-AN,Málaga,10.456440179589896
3751,KOMA,large_airport,Eppley Airfield,41.3032,-95.894096,US,US-NE,Omaha,10.46389527887264
5673,RODN,large_airport,Kadena Air Base,26.351667,127.769444,JP,JP-47,,10.46455128869317
4013,LEIB,large_airport,Ibiza Airport,38.872898,1.37312,ES,ES-IB,Ibiza (Eivissa),10.46693800580974
1717,CYEG,large_airport,Edmonton International Airport,53.3097,-113.580002,CA,CA-AB,Edmonton,10.469987736365423
1973,CYYC,large_airport,Calgary International Airport,51.118822,-114.009933,CA,CA-AB,Calgary,10.470230687250416
26874,WMKK,large_airport,Kuala Lumpur International Airport,2.74558,101.709999,MY,MY-10,Sepang,10.488133356988886
2220,EDDP,large_airport,Leipzig/Halle Airport,51.420657,12.232705,DE,DE-SN,Schkeuditz,10.488226551748184
4251,LGAV,large_airport,Athens Eleftherios Venizelos International Airport,37.936401,23.9445,GR,GR-I,Spata-Artemida,10.488795460776124
2637,EPWA,large_airport,Warsaw Chopin Airport,52.165699,20.9671,PL,PL-MZ,Warsaw,10.49657172728704
26434,VABB,large_airport,Chhatrapati Shivaji International Airport,19.0886993408,72.8678970337,IN,IN-MM,Mumbai,10.507420484470579
342093,IN-0276,large_airport,Navi Mumbai International Airport,18.988686,73.068523,IN,IN-MM,Navi Mumbai,10.515797694029546
4806,MRLB,large_airport,Guanacaste Airport,10.5933,-85.544403,CR,CR-G,Liberia,10.520209341493915
324731,TR-0044,large_airport,Çukurova International Airport,36.890908,35.070522,TR,TR-33,Tarsus,10.525438420055531
26618,VOMM,large_airport,Chennai International Airport,12.990005,80.169296,IN,IN-TN,Chennai,10.525538661772353
4408,LKPR,large_airport,Václav Havel Airport Prague,50.100874,14.259911,CZ,CZ-PR,Prague,10.53377651844736
3993,LDZA,large_airport,Zagreb Franjo Tuđman International Airport,45.742901,16.0688,HR,HR-01,Velika Gorica,10.53421402398827
2224,EDDV,large_airport,Hannover Airport,52.461102,9.68508,DE,DE-NI,Hannover,10.535260322616049
26835,WIII,large_airport,Soekarno-Hatta International Airport,-6.1255698204,106.65599823,ID,ID-BT,Jakarta,10.54415903863055
5257,OPLA,large_airport,Allama Iqbal International Airport,31.521601,74.403603,PK,PK-PB,Lahore,10.544528974807553
4060,LFBD,large_airport,Bordeaux-Mérignac Airport,44.8283,-0.715556,FR,FR-NAQ,Bordeaux/Mérignac,10.546293737928085
308273,SEQM,large_airport,Mariscal Sucre International Airport,-0.125399,-78.354306,EC,EC-P,Quito,10.546835197461053
5689,RPLL,large_airport,Ninoy Aquino International Airport,14.5086,121.019997,PH,PH-00,Manila (Pasay),10.547751259955758
4509,LTAC,large_airport,Esenboğa International Airport,40.128101,32.995098,TR,TR-06,Ankara,10.561003223335936
2461,EGPF,large_airport,Glasgow International Airport,55.871899,-4.43306,GB,GB-SCT,"Paisley, Renfrewshire",10.56259357288152
3980,LCLK,large_airport,Larnaca International Airport,34.875099,33.624901,CY,CY-04,Larnaca,10.564109927173478
4820,MSLP,large_airport,Monseñor Óscar Arnulfo Romero International Airport,13.4409,-89.055702,SV,SV-PA,San Salvador (San Luis Talpa),10.564976112888937
2214,EDDH,large_airport,Hamburg Helmut Schmidt Airport,53.630402,9.98823,DE,DE-HH,Hamburg,10.567090732383946
2219,EDDN,large_airport,Nuremberg Airport,49.498699,11.078056,DE,DE-BY,Nuremberg,10.57734108444892
301881,EDDB,large_airport,Berlin Brandenburg Airport,52.362247,13.500672,DE,DE-BR,Berlin,10.590183199020773
2462,EGPH,large_airport,Edinburgh Airport,55.950145,-3.372288,GB,GB-SCT,Edinburgh,10.59228719069134
4610,LYBE,large_airport,Belgrade Nikola Tesla Airport,44.818401,20.309099,RS,RS-00,Belgrade,10.614967980461357
27193,ZBYN,large_airport,Taiyuan Wusu Airport,37.746899,112.627998,CN,CN-14,Taiyuan,10.622584580808642
4644,MGGT,large_airport,La Aurora Airport,14.5833,-90.527496,GT,GT-GU,Guatemala City,10.62398893996388
35145,VOBL,large_airport,Kempegowda International Airport,13.1979,77.706299,IN,IN-KA,Bangalore,10.628051192658033
4956,MZBZ,large_airport,Philip S. W. Goldson International Airport,17.539951,-88.303556,BZ,BZ-BZ,Belize City,10.632497917097723
300893,HESG,large_airport,Suhaj Mubarak International Airport,26.342515,31.743017,EG,EG-SHG,Suhaj,10.635819157075224
26708,VVTS,large_airport,Tan Son Nhat International Airport,10.8188,106.652,VN,VN-SE,Ho Chi Minh City,10.637517278976237
35141,VOHS,large_airport,Rajiv Gandhi International Airport,17.231318,78.429855,IN,IN-TG,Hyderabad,10.645383201793628
3631,KLAS,large_airport,Harry Reid International Airport,36.083361,-115.151817,US,US-NV,Las Vegas,10.646237977944832
2218,EDDM,large_airport,Munich Airport,48.353802,11.7861,DE,DE-BY,Munich,10.653689043978579
4321,LICJ,large_airport,Falcone–Borsellino Airport,38.175999,13.091,IT,IT-82,Palermo,10.656277285480922
5671,ROAH,large_airport,Naha Airport / JASDF Naha Air Base,26.195801,127.646004,JP,JP-47,Naha,10.657575887564795
4515,LTAI,large_airport,Antalya International Airport,36.898701,30.800501,TR,TR-07,Antalya,10.670987494143624
4035,LEPA,large_airport,Palma de Mallorca Airport,39.551701,2.73881,ES,ES-IB,Palma de Mallorca,10.675688400149825
347108,EHU,large_airport,Ezhou Huahu Airport,30.341178,115.03926,CN,CN-13,Ezhou,10.683876884324038
317457,LTFM,large_airport,İstanbul Airport,41.261297,28.741951,TR,TR-34,"Arnavutköy, Istanbul",10.689251396623627
5303,OSDI,large_airport,Damascus International Airport,33.4114990234375,36.51559829711914,SY,SY-DI,Damascus,10.693748248943315
2133,DTTA,large_airport,Tunis Carthage International Airport,36.851002,10.2272,TN,TN-11,Tunis,10.694792060490526
5197,OISS,large_airport,Shiraz Shahid Dastghaib International Airport,29.5392,52.589802,IR,IR-07,Shiraz,10.696442807256195
5097,OEJN,large_airport,King Abdulaziz International Airport,21.6796,39.156502,SA,SA-02,Jeddah,10.712347593245205
4332,LIEE,large_airport,Cagliari Elmas Airport,39.251499,9.05428,IT,IT-88,Cagliari,10.725530423100768
3892,KSMF,large_airport,Sacramento International Airport,38.6954,-121.591003,US,US-CA,Sacramento,10.733606595102673
4951,MYNN,large_airport,Lynden Pindling International Airport,25.039,-77.466202,BS,BS-NP,Nassau,10.733615157680823
5536,RJBB,large_airport,Kansai International Airport,34.427299,135.244003,JP,JP-27,Osaka,10.737236768651616
4533,LTBJ,large_airport,Adnan Menderes International Airport,38.2924,27.157,TR,TR-35,Gaziemir,10.748098222977504
4070,LFBO,large_airport,Toulouse-Blagnac Airport,43.629101,1.36382,FR,FR-OCC,Toulouse/Blagnac,10.751856541519796
4315,LIBR,large_airport,Brindisi Airport,40.6576,17.947001,IT,IT-75,Brindisi,10.757144669934714
4528,LTBA,large_airport,İstanbul Atatürk Airport,40.971913,28.823714,TR,TR-34,"Bakırköy, Istanbul",10.763951369133416
4318,LICC,large_airport,Catania-Fontanarossa Airport,37.466801,15.0664,IT,IT-82,Catania,10.781323214604377
19517,KCMA,large_airport,Camarillo International Airport,34.213699,-119.094002,US,US-CA,Camarillo,10.786953569012027
3997,LEAL,large_airport,Alicante-Elche Miguel Hernández Airport,38.2822,-0.558156,ES,ES-VC,Alicante,10.78849705716173
6489,ULLI,large_airport,Pulkovo Airport,59.800301,30.262501,RU,RU-SPE,St. Petersburg,10.788954806413011
4461,LPPT,large_airport,Humberto Delgado Airport (Lisbon Portela Airport),38.7813,-9.13592,PT,PT-11,Lisbon,10.800921085051701
3878,KSFO,large_airport,San Francisco International Airport,37.619806,-122.374821,US,US-CA,San Francisco,10.80429950740997
3768,KPDX,large_airport,Portland International Airport,45.588699,-122.598,US,US-OR,Portland,10.814335694624052
4569,LTFJ,large_airport,Istanbul Sabiha Gökçen International Airport,40.898602,29.3092,TR,TR-34,"Pendik, Istanbul",10.818915122445638
3772,KPHX,large_airport,Phoenix Sky Harbor International Airport,33.435302,-112.005905,US,US-AZ,Phoenix,10.827383884684991
3930,KTUL,large_airport,Tulsa International Airport,36.19839859008789,-95.88809967041016,US,US-OK,Tulsa,10.831738531711695
5079,OBBI,large_airport,Bahrain International Airport,26.267295,50.63764,BH,BH-15,Manama,10.851260579255918
5639,RKPC,large_airport,Jeju International Airport,33.512058,126.492548,KR,KR-49,Jeju City,10.854200260590313
26638,VTBD,large_airport,Don Mueang International Airport,13.9125995636,100.607002258,TH,TH-10,Bangkok,10.855864011829814
44686,OTHH,large_airport,Hamad International Airport,25.273056,51.608056,QA,QA-DA,Doha,10.862386720285562
27216,ZSCN,large_airport,Nanchang Changbei International Airport,28.864815,115.90271,CN,CN-36,Nanchang,10.868760837396229
4310,LIBD,large_airport,Bari Karol Wojtyła International Airport,41.138901,16.760599,IT,IT-75,Bari,10.88439436980042
2050,DAAG,large_airport,Houari Boumediene Airport,36.693886,3.214531,DZ,DZ-16,Algiers,10.89391874056046
5564,RJFF,large_airport,Fukuoka Airport,33.585899353027344,130.4510040283203,JP,JP-40,Fukuoka,10.911958899768893
27230,ZUUU,large_airport,Chengdu Shuangliu International Airport,30.558257,103.945966,CN,CN-51,Chengdu (Shuangliu),10.921895623972242
28118,VTBS,large_airport,Suvarnabhumi Airport,13.681099891662598,100.74700164794922,TH,TH-10,Bangkok,10.927601344855804
27243,ZYTX,large_airport,Shenyang Taoxian International Airport,41.639801,123.483002,CN,CN-21,"Hunnan, Shenyang",10.928421785919879
3863,KSAT,large_airport,San Antonio International Airport,29.533701,-98.469803,US,US-TX,San Antonio,10.93906832960952
4019,LEMD,large_airport,Adolfo Suárez Madrid–Barajas Airport,40.471926,-3.56264,ES,ES-MD,Madrid,10.939111715607782
302303,RKJB,large_airport,Muan International Airport,34.991406,126.382814,KR,KR-46,Muan (Piseo-ri),10.971334051033171
27200,ZHHH,large_airport,Wuhan Tianhe International Airport,30.774798,114.213723,CN,CN-42,Wuhan (Huangpi),10.980764054135152
3668,KMCI,large_airport,Kansas City International Airport,39.2976,-94.713898,US,US-MO,Kansas City,10.994804004027978
4490,LSGG,large_airport,Geneva Cointrin International Airport,46.238098,6.10895,CH,CH-GE,Geneva,11.013445000719855
4004,LEBL,large_airport,Josep Tarradellas Barcelona-El Prat Airport,41.2971,2.07846,ES,ES-CT,Barcelona,11.025879580097264
4459,LPPR,large_airport,Francisco de Sá Carneiro Airport,41.2481002808,-8.68138980865,PT,PT-13,Porto,11.026035314668578
4156,LFMN,large_airport,Nice-Côte d'Azur Airport,43.658401,7.21587,FR,FR-PAC,"Nice, Alpes-Maritimes",11.037338574059287
26589,VMMC,large_airport,Macau International Airport,22.149599,113.592003,MO,MO-CAR,Nossa Senhora do Carmo,11.040399963872831
5576,RJGG,large_airport,Chubu Centrair International Airport,34.858398,136.804993,JP,JP-23,Tokoname,11.052300008611867
3796,KPWM,large_airport,Portland International Jetport,43.646198,-70.309303,US,US-ME,Portland,11.059956519732753
3744,KOAK,large_airport,San Francisco Bay Oakland International Airport,37.720085,-122.221184,US,US-CA,Oakland,11.064106457454928
332096,YNT,large_airport,Yantai Penglai International Airport,37.659724,120.978124,CN,CN-37,Yantai,11.067103703305518
27242,ZYTL,large_airport,Dalian Zhoushuizi International Airport,38.965719,121.538477,CN,CN-21,Dalian (Ganjingzi),11.07514833799214
4726,MMMD,large_airport,Manuel Crescencio Rejón International Airport,20.930485,-89.645462,MX,MX-YUC,Mérida,11.078731783426235
4137,LFLL,large_airport,Lyon Saint-Exupéry Airport,45.725996,5.090139,FR,FR-ARA,"Colombier-Saugnieu, Rhône",11.08040091530831
2222,EDDS,large_airport,Stuttgart Airport,48.689899,9.22196,DE,DE-BW,Stuttgart,11.083938851184682
2476,EGSS,large_airport,London Stansted Airport,51.884998,0.235,GB,GB-ENG,London,11.092040460261046
4226,LFSB,large_airport,EuroAirport Basel-Mulhouse-Freiburg,47.60068,7.521117,FR,FR-GES,Saint-Louis,11.092452028277213
4505,LSZH,large_airport,Zürich Airport,47.458056,8.548056,CH,CH-ZH,Zurich,11.09843391345361
5226,OMAA,large_airport,Zayed International Airport,24.443764,54.651718,AE,AE-AZ,Abu Dhabi,11.105967920964511
5235,OMDB,large_airport,Dubai International Airport,25.2527999878,55.3643989563,AE,AE-DU,Dubai,11.106486798674228
4155,LFML,large_airport,Marseille Provence Airport,43.438088,5.2125,FR,FR-PAC,"Marignane, Bouches-du-Rhône",11.109411099934531
5653,RKSI,large_airport,Incheon International Airport,37.469101,126.450996,KR,KR-28,Seoul,11.11075883550176
5239,OMSJ,large_airport,Sharjah International Airport,25.3286,55.5172,AE,AE-SH,Sharjah,11.11291136354432
5166,OIIE,large_airport,Imam Khomeini International Airport,35.416099548339844,51.152198791503906,IR,IR-23,Tehran,11.113587235536857
300320,OMDW,large_airport,Al Maktoum International Airport,24.896356,55.161389,AE,AE-DU,Jebel Ali,11.118248247221485
5168,OIII,large_airport,Mehrabad International Airport,35.68920135498047,51.31340026855469,IR,IR-23,Tehran,11.124282710675416
5222,OLBA,large_airport,Beirut Rafic Hariri International Airport,33.820899963378906,35.488399505615234,LB,LB-JL,Beirut,11.133345857668475
4706,MMCZ,large_airport,Cozumel International Airport,20.514922,-86.928538,MX,MX-ROO,Cozumel,11.15331171030849
3675,KMEM,large_airport,Memphis International Airport,35.0424,-89.9767,US,US-TN,Memphis,11.160643373565277
5531,RJAA,large_airport,Narita International Airport,35.764702,140.386002,JP,JP-12,Narita,11.161939802295883
26534,VGZR,large_airport,Hazrat Shahjalal International Airport,23.843347,90.397783,BD,BD-3,Dhaka,11.170885736876274
4757,MMTJ,large_airport,General Abelardo L. Rodriguez International Airport,32.541043,-116.969976,MX,MX-BCN,Tijuana,11.176917231791796
2212,EDDF,large_airport,Frankfurt Airport,50.030241,8.561096,DE,DE-HE,Frankfurt am Main,11.180866173110314
4862,MWCR,large_airport,Owen Roberts International Airport,19.292801,-81.357697,KY,KY-GC,George Town,11.18735933357454
3747,KOKC,large_airport,Will Rogers World Airport,35.393388,-97.598248,US,US-OK,Oklahoma City,11.189500641306227
3905,KSTL,large_airport,St. Louis Lambert International Airport,38.748697,-90.370003,US,US-MO,St Louis,11.197047885817051
31923,MMSM,large_airport,General Felipe Ángeles International Airport,19.7357,-99.0257,MX,MX-MEX,Mexico City,11.20369362996253
3883,KSJC,large_airport,Norman Y. Mineta San Jose International Airport,37.362452,-121.929188,US,US-CA,San Jose,11.203747310073322
3875,KSEA,large_airport,Seattle–Tacoma International Airport,47.447943,-122.310276,US,US-WA,Seattle,11.213355648086711
5212,OJAI,large_airport,Queen Alia International Airport,31.7226009369,35.9931983948,JO,JO-AM,Amman,11.244761941141391
5598,RJOO,large_airport,Osaka International Airport,34.7855,135.438004,JP,JP-27,Osaka,11.247532377889534
4762,MMUN,large_airport,Cancún International Airport,21.039444,-86.874304,MX,MX-ROO,Cancún,11.254590673075953
27217,ZSFZ,large_airport,Fuzhou Changle International Airport,25.934669,119.66318,CN,CN-35,Fuzhou (Changle),11.2648704478369
5089,OEDR,large_airport,King Abdulaziz Air Base,26.2654,50.152,SA,SA-04,Dhahran,11.265285136151265
27215,ZSAM,large_airport,Xiamen Gaoqi International Airport,24.54400062561035,118.12799835205078,CN,CN-35,Xiamen,11.269432908757272
5087,OEDF,large_airport,King Fahd International Airport,26.471201,49.797901,SA,SA-04,Ad Dammam,11.277109937557574
2563,ELLX,large_airport,Luxembourg-Findel International Airport,49.6233333,6.2044444,LU,LU-L,Luxembourg,11.285965099315566
2419,EGGW,large_airport,London Luton Airport,51.874699,-0.368333,GB,GB-ENG,"Luton, Bedfordshire",11.294173635749836
2429,EGKK,large_airport,London Gatwick Airport,51.148771,-0.192089,GB,GB-ENG,"London/Gatwick, West Sussex",11.297430282901482
3711,KMSY,large_airport,Louis Armstrong New Orleans International Airport,29.993401,-90.258003,US,US-LA,New Orleans,11.326271940652887
26535,VHHH,large_airport,Hong Kong International Airport,22.308901,113.915001,HK,HK-NT,Hong Kong,11.331714365755658
4731,MMMX,large_airport,Benito Juárez International Airport,19.435137,-99.071328,MX,MX-DIF,Ciudad de México,11.34556405876064
27199,ZHCC,large_airport,Zhengzhou Xinzheng International Airport,34.526497,113.849165,CN,CN-41,Zhengzhou,11.36351423812569
3862,KSAN,large_airport,San Diego International Airport,32.7336006165,-117.190002441,US,US-CA,San Diego,11.369894796129682
5112,OERK,large_airport,King Khaled International Airport,24.9576,46.698799,SA,SA-01,Riyadh,11.382244009357265
1864,CYQB,large_airport,Quebec Jean Lesage International Airport,46.7911,-71.393303,CA,CA-QC,Quebec,11.391242361293177
26394,UUDD,large_airport,Domodedovo International Airport,55.408798,37.9063,RU,RU-MOS,Moscow,11.391471859735926
4859,MUVR,large_airport,Juan Gualberto Gomez International Airport,23.034401,-81.435303,CU,CU-04,Matanzas,11.396132625030829
3709,KMSP,large_airport,Minneapolis–Saint Paul International Airport / Wold–Chamberlain Field,44.880081,-93.221741,US,US-MN,Minneapolis,11.405389776070061
2398,EGCC,large_airport,Manchester Airport,53.349375,-2.279521,GB,GB-ENG,"Manchester, Greater Manchester",11.418925814681566
2216,EDDK,large_airport,Cologne Bonn Airport,50.865898,7.14274,DE,DE-NW,Köln (Cologne),11.443123463849444
4378,LIRN,large_airport,Naples International Airport,40.886002,14.2908,IT,IT-72,Napoli,11.454414640100687
4372,LIRF,large_airport,Rome–Fiumicino Leonardo da Vinci International Airport,41.804532,12.251998,IT,IT-62,Rome,11.465179833709263
42967,UUBW,large_airport,Zhukovsky International Airport,55.553299,38.150002,RU,RU-MOS,Moscow,11.473368331766663
26396,UUEE,large_airport,Sheremetyevo International Airport,55.972599,37.4146,RU,RU-MOS,Moscow,11.47569759631218
3386,KAUS,large_airport,Austin Bergstrom International Airport,30.197535,-97.662015,US,US-TX,Austin,11.475867619896956
26401,UUWW,large_airport,Vnukovo International Airport,55.591499,37.261501,RU,RU-MOW,Moscow,11.527438732975904
2389,EGBB,large_airport,Birmingham Airport,52.453899,-1.74803,GB,GB-ENG,"Birmingham, West Midlands",11.53179010339922
5528,RCTP,large_airport,Taiwan Taoyuan International Airport,25.0777,121.233002,TW,TW-TAO,Taoyuan,11.53939397115202
4368,LIPZ,large_airport,Venice Marco Polo Airport,45.505299,12.3519,IT,IT-34,Venezia (VE),11.56261332189965
4379,LIRP,large_airport,Pisa International Airport,43.683899,10.3927,IT,IT-52,Pisa (PI),11.572468473984069
4342,LIMF,large_airport,Turin Airport,45.200802,7.64963,IT,IT-21,Caselle Torinese (TO),11.573436095892772
4189,LFPO,large_airport,Paris-Orly Airport,48.72333,2.37944,FR,FR-IDF,"Paris (Orly, Val-de-Marne)",11.573774066584985
4185,LFPG,large_airport,Charles de Gaulle International Airport,49.012798,2.55,FR,FR-IDF,"Paris (Roissy-en-France, Val-d'Oise)",11.580602543628894
5220,OKBK,large_airport,Kuwait International Airport,29.226601,47.968899,KW,KW-FA,Kuwait City,11.580824992022883
5642,RKPK,large_airport,Gimhae International Airport,35.179501,128.938004,KR,KR-26,Busan,11.585513783866395
2434,EGLL,large_airport,London Heathrow Airport,51.4706,-0.461941,GB,GB-ENG,London,11.589274447111315
342096,TAO,large_airport,Qingdao Jiaodong International Airport,36.361953,120.088171,CN,CN-37,Qingdao (Jiaozhou),11.593584778398165
27198,ZGSZ,large_airport,Shenzhen Bao'an International Airport,22.639299,113.810997,CN,CN-44,Shenzhen (Bao'an),11.600765587963501
27194,ZGGG,large_airport,Guangzhou Baiyun International Airport,23.392401,113.299004,CN,CN-44,Guangzhou (Huadu),11.602811145313158
5516,RCKH,large_airport,Kaohsiung International Airport,22.577101,120.349998,TW,TW-KHH,Kaohsiung (Xiaogang),11.644743545734721
5627,RJTT,large_airport,Tokyo Haneda International Airport,35.552299,139.779999,JP,JP-13,Tokyo,11.658441659933066
4411,LLBG,large_airport,Ben Gurion International Airport,32.011398,34.8867,IL,IL-M,Tel Aviv,11.705633804208386
32672,ZSWZ,large_airport,Wenzhou Longwan International Airport,27.912201,120.851997,CN,CN-33,Wenzhou,11.715656777373171
3632,KLAX,large_airport,Los Angeles International Airport,33.942501,-118.407997,US,US-CA,Los Angeles,11.716195037286097
27219,ZSJN,large_airport,Jinan Yaoqiang International Airport,36.857201,117.216003,CN,CN-37,Jinan (Licheng),11.722480407303049
3488,KDFW,large_airport,Dallas Fort Worth International Airport,32.896801,-97.038002,US,US-TX,Dallas-Fort Worth,11.737778732488811
3894,KSNA,large_airport,John Wayne Orange County International Airport,33.675701,-117.867996,US,US-CA,Santa Ana,11.741474945504441
2217,EDDL,large_airport,Düsseldorf Airport,51.289501,6.76678,DE,DE-NW,Düsseldorf,11.753668588442109
3604,KIAH,large_airport,George Bush Intercontinental Houston Airport,29.984399795532227,-95.34140014648438,US,US-TX,Houston,11.787126767835176
4340,LIMC,large_airport,Milan Malpensa International Airport,45.6306,8.72811,IT,IT-25,Ferno (VA),11.85107158276037
1840,CYOW,large_airport,Ottawa Macdonald-Cartier International Airport,45.322498,-75.669197,CA,CA-ON,Ottawa,11.864940348805598
5289,ORBI,large_airport,Baghdad International Airport / New Al Muthana Air Base,33.262501,44.2346,IQ,IQ-BG,Baghdad,11.871771555941972
4354,LIPE,large_airport,Bologna Guglielmo Marconi Airport,44.5354,11.2887,IT,IT-45,Bologna,11.925467916860656
4341,LIME,large_airport,Milan Bergamo Airport / Antonio Locatelli Air Base,45.670725,9.709223,IT,IT-25,Orio al Serio (BG),11.926569745982484
2513,EHAM,large_airport,Amsterdam Airport Schiphol,52.308601,4.76389,NL,NL-NH,Amsterdam,11.972127024020264
4366,LIPX,large_airport,Verona Villafranca Valerio Catullo Airport,45.394955,10.887303,IT,IT-34,Caselle (VR),11.981358326885747
3752,KONT,large_airport,Ontario International Airport,34.056,-117.600998,US,US-CA,Ontario,11.98289120089623
27188,ZBAA,large_airport,Beijing Capital International Airport,40.080101013183594,116.58499908447266,CN,CN-11,Beijing,11.987617435338992
3422,KBOS,large_airport,Logan International Airport,42.36197,-71.0079,US,US-MA,Boston,11.995685929212286
330820,ZBAD,large_airport,Beijing Daxing International Airport,39.509945,116.41092,CN,CN-11,Beijing,11.99718844128631
2518,EHEH,large_airport,Eindhoven Airport,51.4500999451,5.37452983856,NL,NL-NB,Eindhoven,12.012917740892439
27223,ZSPD,large_airport,Shanghai Pudong International Airport,31.1434,121.805,CN,CN-31,Shanghai (Pudong),12.033337576179362
5629,RJTY,large_airport,Yokota Air Base,35.748501,139.348007,JP,JP-13,Fussa,12.043910254801267
4839,MUHA,large_airport,José Martí International Airport,22.989200592041016,-82.40910339355469,CU,CU-03,Havana,12.049457795754998
3795,KPVD,large_airport,Theodore Francis Green State Airport,41.725038,-71.425668,US,US-RI,Warwick,12.0615294078286
3183,HECA,large_airport,Cairo International Airport,30.111534,31.396694,EG,EG-C,Cairo,12.068563893032731
26496,VECC,large_airport,Netaji Subhash Chandra Bose International Airport,22.654699,88.446701,IN,IN-WB,Kolkata,12.107077025614466
3431,KBUF,large_airport,Buffalo Niagara International Airport,42.940498,-78.732201,US,US-NY,Buffalo,12.123821686203796
27192,ZBTJ,large_airport,Tianjin Binhai International Airport,39.124401092499994,117.346000671,CN,CN-12,Tianjin,12.140085699190356
3396,KBDL,large_airport,Bradley International Airport,41.93851,-72.688066,US,US-CT,Hartford,12.142857353894804
26555,VIDP,large_airport,Indira Gandhi International Airport,28.55563,77.09519,IN,IN-DL,New Delhi,12.158971038040674
3755,KORF,large_airport,Norfolk International Airport,36.895341,-76.201,US,US-VA,Norfolk,12.159371731797256
5656,RKSS,large_airport,Gimpo International Airport,37.5583,126.791,KR,KR-11,Seoul,12.175286224081871
3913,KSYR,large_airport,Syracuse Hancock International Airport,43.11119842529297,-76.1063003540039,US,US-NY,Syracuse,12.179805366634685
27221,ZSNJ,large_airport,Nanjing Lukou International Airport,31.735032,118.865949,CN,CN-32,Nanjing,12.224673359720072
3847,KRIC,large_airport,Richmond International Airport,37.505199,-77.319702,US,US-VA,Richmond,12.305279880440917
2155,EBBR,large_airport,Brussels Airport,50.901402,4.48444,BE,BE-VBR,Zaventem,12.307676837769469
3844,KRDU,large_airport,Raleigh Durham International Airport,35.877602,-78.787498,US,US-NC,Raleigh/Durham,12.417118299422551
27220,ZSNB,large_airport,Ningbo Lishe International Airport,29.82670021057129,121.46199798583984,CN,CN-33,Ningbo,12.4764302708579
3766,KPBI,large_airport,Palm Beach International Airport,26.683201,-80.095596,US,US-FL,West Palm Beach,12.491095348457593
3873,KSDF,large_airport,Louisville Muhammad Ali International Airport,38.1744,-85.736,US,US-KY,Louisville,12.55229413194907
3420,KBNA,large_airport,Nashville International Airport,36.1245,-86.6782,US,US-TN,Nashville,12.554245025284523
3685,KMIA,large_airport,Miami International Airport,25.79319953918457,-80.29060363769531,US,US-FL,Miami,12.565379161735356
1928,CYUL,large_airport,Montreal / Pierre Elliott Trudeau International Airport,45.467837,-73.742294,CA,CA-QC,Montréal,12.582927452518163
3610,KIND,large_airport,Indianapolis International Airport,39.7173,-86.294403,US,US-IN,Indianapolis,12.616170944999466
3622,KJFK,large_airport,John F Kennedy International Airport,40.639447,-73.779317,US,US-NY,New York,12.678552147743666
3876,KSFB,large_airport,Orlando Sanford International Airport,28.777599334716797,-81.23750305175781,US,US-FL,Orlando,12.682426115095868
3778,KPIT,large_airport,Pittsburgh International Airport,40.491501,-80.232903,US,US-PA,Pittsburgh,12.721295956149952
3620,KJAX,large_airport,Jacksonville International Airport,30.492469,-81.687813,US,US-FL,Jacksonville,12.769844535927636
3926,KTPA,large_airport,Tampa International Airport,27.9755,-82.533203,US,US-FL,Tampa,12.794237167124521
3531,KFLL,large_airport,Fort Lauderdale Hollywood International Airport,26.072599,-80.152702,US,US-FL,Fort Lauderdale,12.801530766559171
3864,KSAV,large_airport,Savannah Hilton Head International Airport,32.127602,-81.202103,US,US-GA,Savannah,12.852987738980737
1990,CYYZ,large_airport,Toronto Lester B. Pearson International Airport,43.6772,-79.6306,CA,CA-ON,Toronto,12.857395499935857
3858,KRSW,large_airport,Southwest Florida International Airport,26.53619956970215,-81.75520324707031,US,US-FL,Fort Myers,12.863922142573886
3454,KCLE,large_airport,Cleveland Hopkins International Airport,41.411701,-81.8498,US,US-OH,Cleveland,12.885006677263872
3471,KCVG,large_airport,Cincinnati Northern Kentucky International Airport,39.048801,-84.667801,US,US-KY,Cincinnati / Covington,12.885546396193138
3643,KLGA,large_airport,LaGuardia Airport,40.777199,-73.872597,US,US-NY,New York,12.917716835826424
3483,KDCA,large_airport,Ronald Reagan Washington National Airport,38.8521,-77.037697,US,US-DC,Washington,12.919765704905583
3364,KADW,large_airport,Joint Base Andrews,38.810799,-76.866997,US,US-MD,Camp Springs,12.923163577321777
27218,ZSHC,large_airport,Hangzhou Xiaoshan International Airport,30.23609,120.428865,CN,CN-33,Hangzhou,12.938127802569248
3458,KCMH,large_airport,John Glenn Columbus International Airport,39.998001,-82.891899,US,US-OH,Columbus,12.939085811803903
3435,KBWI,large_airport,Baltimore/Washington International Thurgood Marshall Airport,39.1754,-76.668297,US,US-MD,Baltimore,12.94405057900312
3602,KIAD,large_airport,Washington Dulles International Airport,38.9445,-77.455803,US,US-VA,Dulles,13.034674143445125
3670,KMCO,large_airport,Orlando International Airport,28.429399490356445,-81.30899810791016,US,US-FL,Orlando,13.03627634683153
3384,KATL,large_airport,Hartsfield Jackson Atlanta International Airport,33.6367,-84.428101,US,US-GA,Atlanta,13.053476305543452
27225,ZSSS,large_airport,Shanghai Hongqiao International Airport,31.198104,121.33426,CN,CN-31,Shanghai (Minhang),13.063345436070163
3771,KPHL,large_airport,Philadelphia International Airport,39.871899,-75.241096,US,US-PA,Philadelphia,13.064442810940445
3457,KCLT,large_airport,Charlotte Douglas International Airport,35.2140007019043,-80.94309997558594,US,US-NC,Charlotte,13.162780993319775
3521,KEWR,large_airport,Newark Liberty International Airport,40.692501,-74.168701,US,US-NJ,Newark,13.224355230965845
3899,KSRQ,large_airport,Sarasota Bradenton International Airport,27.394631,-82.554359,US,US-FL,Sarasota/Bradenton,13.354453697280766
3690,KMKE,large_airport,General Mitchell International Airport,42.947201,-87.896599,US,US-WI,Milwaukee,13.476653557123544
3673,KMDW,large_airport,Chicago Midway International Airport,41.785999,-87.752403,US,US-IL,Chicago,13.731212297184307
3497,KDTW,large_airport,Detroit Metropolitan Wayne County Airport,42.21377,-83.353786,US,US-MI,Detroit,13.951199493640573
3754,KORD,large_airport,Chicago O'Hare International Airport,41.9786,-87.9048,US,US-IL,Chicago,14.839822807072283
